{
    "links": {
        "self": "http://www.neowsapp.com/rest/v1/neo/3469641?api_key=iIulBulltgU6a56xZRHN4H3l9WmuAYTsLGpBGhQ2"
    },
    "id": "3469641",
    "neo_reference_id": "3469641",
    "name": "(2009 ST171)",
    "designation": "2009 ST171",
    "nasa_jpl_url": "http://ssd.jpl.nasa.gov/sbdb.cgi?sstr=3469641",
    "absolute_magnitude_h": 26.8,
    "estimated_diameter": {
        "kilometers": {
            "estimated_diameter_min": 0.0116025908,
            "estimated_diameter_max": 0.0259441818
        },
        "meters": {
            "estimated_diameter_min": 11.6025908209,
            "estimated_diameter_max": 25.9441817907
        },
        "miles": {
            "estimated_diameter_min": 0.0072095135,
            "estimated_diameter_max": 0.0161209622
        },
        "feet": {
            "estimated_diameter_min": 38.066244069,
            "estimated_diameter_max": 85.1187093863
        }
    },
    "is_potentially_hazardous_asteroid": false,
    "close_approach_data": [
        {
            "close_approach_date": "2009-10-05",
            "close_approach_date_full": "2009-Oct-05 15:34",
            "epoch_date_close_approach": 1254756840000,
            "relative_velocity": {
                "kilometers_per_second": "8.7079626266",
                "kilometers_per_hour": "31348.6654556421",
                "miles_per_hour": "19478.8415993683"
            },
            "miss_distance": {
                "astronomical": "0.040714094",
                "lunar": "15.837782566",
                "kilometers": "6090741.74137978",
                "miles": "3784611.423329764"
            },
            "orbiting_body": "Earth"
        }
    ],
    "orbital_data": {
        "orbit_id": "6",
        "orbit_determination_date": "2017-04-06 08:59:45",
        "first_observation_date": "2009-09-28",
        "last_observation_date": "2009-09-29",
        "data_arc_in_days": 1,
        "observations_used": 19,
        "orbit_uncertainty": "8",
        "minimum_orbit_intersection": ".0281853",
        "jupiter_tisserand_invariant": "3.129",
        "epoch_osculation": "2455103.5",
        "eccentricity": ".6082278489280954",
        "semi_major_axis": "2.584941107963718",
        "inclination": "3.741970623163681",
        "ascending_node_longitude": "186.6044338063521",
        "orbital_period": "1518.009210201128",
        "perihelion_distance": "1.012707938261138",
        "perihelion_argument": "205.9012499863483",
        "aphelion_distance": "4.157174277666297",
        "perihelion_time": "2455125.783573320633",
        "mean_anomaly": "354.7153901692303",
        "mean_motion": ".2371527113147765",
        "equinox": "J2000",
        "orbit_class": {
            "orbit_class_type": "APO",
            "orbit_class_description": "Near-Earth asteroid orbits which cross the Earth’s orbit similar to that of 1862 Apollo",
            "orbit_class_range": "a (semi-major axis) > 1.0 AU; q (perihelion) < 1.017 AU"
        }
    },
    "is_sentry_object": false
}